[{"OBJECT_NAME":"SCS-01 B","OBJECT_ID":"2025-100B","EPOCH":"2026-03-09T21:49:11.508672","MEAN_MOTION":15.3317485,"ECCENTRICITY":0.00088698,"INCLINATION":97.3706,"RA_OF_ASC_NODE":145.9041,"ARG_OF_PERICENTER":288.6157,"MEAN_ANOMALY":71.4122,"EPHEMERIS_TYPE":0,"CLASSIFICATION_TYPE":"U","NORAD_CAT_ID":63983,"ELEMENT_SET_NO":999,"REV_AT_EPOCH":4567,"BSTAR":0.00098809397,"MEAN_MOTION_DOT":0.00031724,"MEAN_MOTION_DDOT":0},{"OBJECT_NAME":"STARLINK-35541","OBJECT_ID":"2025-245B","EPOCH":"2026-03-09T21:56:23.777376","MEAN_MOTION":15.30214296,"ECCENTRICITY":8.061e-5,"INCLINATION":53.1587,"RA_OF_ASC_NODE":282.6629,"ARG_OF_PERICENTER":82.3941,"MEAN_ANOMALY":277.7151,"EPHEMERIS_TYPE":0,"CLASSIFICATION_TYPE":"U","NORAD_CAT_ID":66235,"ELEMENT_SET_NO":999,"REV_AT_EPOCH":2124,"BSTAR":0.00097606581,"MEAN_MOTION_DOT":0.00028673,"MEAN_MOTION_DDOT":0}]
